STARLINK-31247          
1 59206U 24046F   26068.53249558 -.00000991  00000+0 -21364-4 0  9991
2 59206  53.1583 156.2000 0001171  83.8857 276.2277 15.30182497113022
KUIPER-00175            
1 67135U 25301C   26068.97960463  .00019968  00000+0  66732-3 0  9998
2 67135  51.8781  63.6978 0002279  50.5695 309.5490 15.30996371 13854
